{
  "version": 0.6,
  "generator": "Overpass API",
  "osm3s": {
    "timestamp_osm_base": "2017-02-23T23:16:02Z",
    "copyright": "The data included in this document is from www.openstreetmap.org. The data is made available under ODbL."
  },
  "elements": [

{
  "type": "node",
  "id": 25871341,
  "lat": 51.0000003,
  "lon": 9.9999997,
  "tags": {
    "alt_name:vi": "Âu Châu",
    "name": "Europe",
    "name:ar": "أوروبا",
    "name:be": "Еўропа",
    "name:ca": "Europa",
    "name:cs": "Evropa",
    "name:csb": "Eùropa",
    "name:da": "Europa",
    "name:de": "Europa",
    "name:el": "Ευρώπη",
    "name:en": "Europe",
    "name:eo": "Eŭropo",
    "name:es": "Europa",
    "name:eu": "Europa",
    "name:fi": "Eurooppa",
    "name:fr": "Europe",
    "name:fy": "Jeropa",
    "name:ga": "Eoraip",
    "name:hi": "यूरोप",
    "name:hr": "Europa",
    "name:hu": "Európa",
    "name:ia": "Europa",
    "name:io": "Europa",
    "name:is": "Evrópa",
    "name:it": "Europa",
    "name:jbo": "rontu'a",
    "name:kn": "ಯುರೋಪ್",
    "name:ku": "Ewropa",
    "name:la": "Europa",
    "name:li": "Europa",
    "name:lt": "Europa",
    "name:mi": "Ūropi",
    "name:ms": "Eropah",
    "name:nb": "Europa",
    "name:nl": "Europa",
    "name:nn": "Europa",
    "name:no": "Europa",
    "name:nov": "Europa",
    "name:pl": "Europa",
    "name:pt": "Europa",
    "name:ro": "Europa",
    "name:ru": "Европа",
    "name:sk": "Európa",
    "name:sl": "Evropa",
    "name:sr": "Европа",
    "name:sv": "Europa",
    "name:szl": "Ojropa",
    "name:ta": "ஐரோப்பா",
    "name:tl": "Europa",
    "name:tr": "Avrupa",
    "name:tzl": "Europa",
    "name:uk": "Європа",
    "name:vi": "Châu Âu",
    "name:vo": "Yurop",
    "name:zea": "Europa",
    "name:zh": "欧洲",
    "name:zh-classical": "歐洲",
    "name:zh-simplified": "欧洲",
    "name:zh-traditional": "歐洲",
    "name:zh_pinyin": "Ōu",
    "place": "continent",
    "population": "739165030",
    "sqkm": "10180000",
    "wikipedia": "en:Europe"
  }
},
{
  "type": "node",
  "id": 36966057,
  "lat": 2.0000003,
  "lon": 15.9999997,
  "tags": {
    "alt_name:vi": "Phi Châu",
    "name": "Africa",
    "name:af": "Afrika",
    "name:ar": "أفريقيا",
    "name:ba": "Африка",
    "name:be": "Афрыка",
    "name:ca": "Àfrica",
    "name:cs": "Afrika",
    "name:csb": "Afrika",
    "name:da": "Afrika",
    "name:de": "Afrika",
    "name:el": "Αφρική",
    "name:en": "Africa",
    "name:eo": "Afriko",
    "name:es": "África",
    "name:eu": "Afrika",
    "name:fi": "Afrikka",
    "name:fr": "Afrique",
    "name:fy": "Afrika",
    "name:ga": "an Afraic",
    "name:he": "אפריקה",
    "name:hi": "अफ़्रीका",
    "name:hr": "Afrika",
    "name:hu": "Afrika",
    "name:ia": "Africa",
    "name:io": "Afrika",
    "name:is": "Afríka",
    "name:it": "Africa",
    "name:jbo": "frikytu'a",
    "name:kn": "ಆಫ್ರಿಕಾ",
    "name:ku": "Afrîka",
    "name:la": "Africa",
    "name:li": "Afrika",
    "name:lt": "Afrika",
    "name:mi": "Āwherika",
    "name:ms": "Afrika",
    "name:nb": "Afrika",
    "name:nl": "Afrika",
    "name:nn": "Afrika",
    "name:no": "Afrika",
    "name:nov": "Afrika",
    "name:pl": "Afryka",
    "name:pt": "África",
    "name:ru": "Африка",
    "name:sk": "Afrika",
    "name:sl": "Afrika",
    "name:sr": "Африка",
    "name:sv": "Afrika",
    "name:szl": "Afrika",
    "name:ta": "ஆப்பிரிக்கா",
    "name:tl": "Aprika",
    "name:tr": "Afrika",
    "name:tt": "Африка",
    "name:tzl": "Abrica",
    "name:uk": "Африка",
    "name:vi": "Châu Phi",
    "name:vo": "Frikop",
    "name:zea": "Afrika",
    "name:zh": "非洲",
    "name:zh-classical": "非洲",
    "name:zh-simplified": "非洲",
    "name:zh-traditional": "非洲",
    "place": "continent",
    "population": "1100000000",
    "sqkm": "30221532",
    "wikipedia": "en:Africa"
  }
},
{
  "type": "node",
  "id": 36966060,
  "lat": -79.4063075,
  "lon": 0.3149312,
  "tags": {
    "ISO3166-1": "AQ",
    "ISO3166-1:alpha2": "AQ",
    "ISO3166-1:alpha3": "ATA",
    "ISO3166-1:numeric": "010",
    "alt_name:es": "Antártica",
    "alt_name:vi": "Nam Cực Châu",
    "name": "Antarctica",
    "name:af": "Antarktika",
    "name:am": "አንታርክቲካ",
    "name:an": "Antarctida",
    "name:ar": "القارة القطبية الجنوبية",
    "name:as": "এন্টাৰ্কটিকা",
    "name:ast": "Antártida",
    "name:az": "Antarktida",
    "name:ba": "Антарктика",
    "name:be": "Антарктыда",
    "name:bg": "Антарктида",
    "name:bn": "অ্যান্টার্কটিকা",
    "name:br": "Antarktika",
    "name:bs": "Antarktik",
    "name:ca": "Antàrtida",
    "name:ce": "Антарктида",
    "name:co": "Antartide",
    "name:cs": "Antarktida",
    "name:cu": "Антарктїка",
    "name:cv": "Антарктида",
    "name:cy": "Yr Antarctig",
    "name:da": "Antarktis",
    "name:de": "Antarktika",
    "name:el": "Ανταρκτική",
    "name:en": "Antarctica",
    "name:eo": "Antarkto",
    "name:es": "Antártida",
    "name:et": "Antarktis",
    "name:eu": "Antartika",
    "name:fa": "جنوبگان",
    "name:fi": "Etelämanner",
    "name:fo": "Antarktis",
    "name:fr": "Antarctique",
    "name:fy": "Antarktika",
    "name:ga": "Antartach",
    "name:gd": "Antargtaga",
    "name:gl": "Antártida",
    "name:gn": "Antártida",
    "name:gu": "ઍન્ટાર્કટિકા",
    "name:gv": "Yn Antarctagh",
    "name:he": "אנטארקטיקה",
    "name:hi": "अंटार्कटिका",
    "name:hr": "Antarktika",
    "name:ht": "Antatik",
    "name:hu": "Antarktika",
    "name:hy": "Антарктида",
    "name:ia": "Antarctica",
    "name:id": "Antarktika",
    "name:ie": "Antarctic",
    "name:ig": "Antarctica",
    "name:io": "Antarktika",
    "name:is": "Suðurskautslandið",
    "name:it": "Antartide",
    "name:ja": "南極大陸",
    "name:jbo": "ziptu'a",
    "name:jv": "Antartika",
    "name:ka": "ანტარქტიდა",
    "name:kk": "Антарктида",
    "name:kl": "Qalasersuaq Kujalleq",
    "name:kn": "ಅಂಟಾರ್ಟಿಕಾ",
    "name:ko": "남극",
    "name:ku": "Antarktîka",
    "name:kw": "Antarktika",
    "name:la": "Antarctica",
    "name:lb": "Antarktis",
    "name:li": "Antarctica",
    "name:lo": "ທະວີບອັງຕາກຕິກ",
    "name:lt": "Antarktida",
    "name:lv": "Antarktīda",
    "name:mg": "Antartika",
    "name:mi": "Te Tiri o Te Moana",
    "name:mk": "Антарктик",
    "name:ml": "അന്റാർട്ടിക്ക",
    "name:mn": "Антарктид",
    "name:mr": "अंटार्क्टिका",
    "name:ms": "Antartika",
    "name:nb": "Antarktika",
    "name:ne": "अन्टार्क्टिका",
    "name:nl": "Antarctica",
    "name:nn": "Antarktis",
    "name:no": "Antarktika",
    "name:nv": "Shádiʼááhjí kéyah yistinígíí",
    "name:oc": "Antartida",
    "name:or": "ଆଣ୍ଟର୍କଟିକା",
    "name:os": "Антарктидæ",
    "name:pa": "ਅੰਟਾਰਕਟਿਕਾ",
    "name:pl": "Antarktyda",
    "name:ps": "انټارکټيکا",
    "name:pt": "Antártida",
    "name:pt-br": "Antártica",
    "name:qu": "Antartika",
    "name:ro": "Antarctida",
    "name:ru": "Антарктида",
    "name:rw": "Antarigitika",
    "name:sa": "अण्टार्क्टिका",
    "name:se": "Antárktis",
    "name:sh": "Antarktik",
    "name:sk": "Antarktída",
    "name:sl": "Antarktika",
    "name:sm": "Anetatika",
    "name:so": "Antiarktis",
    "name:sq": "Antarktiku",
    "name:sr": "Антарктик",
    "name:su": "Antartika",
    "name:sv": "Antarktis",
    "name:sw": "Antaktiki",
    "name:ta": "அன்டார்க்டிக்கா",
    "name:tg": "Антарктида",
    "name:th": "ทวีปแอนตาร์กติกา",
    "name:tk": "Antarktika",
    "name:tl": "Antartiko",
    "name:to": "ʻAnetātika",
    "name:tr": "Antarktika",
    "name:tt": "Антарктида",
    "name:uk": "Антарктида",
    "name:ur": "انٹارکٹکا",
    "name:uz": "Antarktida",
    "name:vi": "Châu Nam Cực",
    "name:wa": "Antartike",
    "name:wo": "Goxub Dottub Bëj-saalum",
    "name:yi": "אנטארקטיקע",
    "name:yo": "Antárktìkà",
    "name:za": "Namzgigcouh",
    "name:zh": "南极洲",
    "name:zh-classical": "南極洲",
    "name:zh-simplified": "南极洲",
    "name:zh-traditional": "南極洲",
    "name:zu": "I-Antatika",
    "place": "continent",
    "population": "0",
    "sqkm": "14000000",
    "wikipedia": "en:Antarctica"
  }
},
{
  "type": "node",
  "id": 36966063,
  "lat": 51.0000002,
  "lon": -109.0000002,
  "tags": {
    "name": "North America",
    "name:ar": "أمريكا الشمالية",
    "name:be": "Паўночная Амерыка",
    "name:ca": "Amèrica del Nord",
    "name:cs": "Severní Amerika",
    "name:csb": "Nordowô Amerika",
    "name:da": "Nordamerika",
    "name:de": "Nordamerika",
    "name:el": "Βόρεια Αμερική",
    "name:en": "North America",
    "name:eo": "Nordameriko",
    "name:es": "América del Norte",
    "name:fi": "Pohjois-Amerikka",
    "name:fr": "Amérique du Nord",
    "name:fy": "Noard-Amearika",
    "name:ga": "Meiriceá Thuiaidh",
    "name:hi": "उत्तर अमेरिका",
    "name:hr": "Sjeverna Amerika",
    "name:hu": "Észak-Amerika",
    "name:ia": "America del Nord",
    "name:io": "Nord-Amerika",
    "name:is": "Norður-Ameríka",
    "name:it": "America settentrionale",
    "name:jbo": "bemtu'a",
    "name:kn": "ಉತ್ತರ ಅಮೇರಿಕ",
    "name:ku": "Amerîkaya Bakur",
    "name:la": "America Septentrionalis",
    "name:li": "Noord-Amerika",
    "name:lt": "Šiaurės Amerika",
    "name:ms": "Amerika Utara",
    "name:nb": "Nord-Amerika",
    "name:nl": "Noord-Amerika",
    "name:nn": "Nord-Amerika",
    "name:no": "Nord-Amerika",
    "name:nov": "Nordi Amerika",
    "name:pl": "Ameryka Północna",
    "name:pt": "América do Norte",
    "name:ru": "Северная Америка",
    "name:sk": "Severná Amerika",
    "name:sl": "Severna Amerika",
    "name:sr": "Северна Америка",
    "name:sv": "Nordamerika",
    "name:szl": "Amerika Půłnocno",
    "name:tl": "Hilagang Amerika",
    "name:tzl": "America Septentrional",
    "name:uk": "Північна Америка",
    "name:vi": "Bắc Mỹ",
    "name:vo": "Nolüda-Merop",
    "name:zea": "Noôrd-Amerika",
    "name:zh": "北美洲",
    "name:zh-classical": "北美洲",
    "name:zh-simplified": "北美洲",
    "name:zh-traditional": "北美洲",
    "place": "continent",
    "population": "528720588",
    "sqkm": "24709000",
    "wikipedia": "en:North America"
  }
},
{
  "type": "node",
  "id": 36966065,
  "lat": 56.0000002,
  "lon": 103.9999998,
  "tags": {
    "alt_name:vi": "Á Châu",
    "name": "Asia",
    "name:ar": "آسيا",
    "name:be": "Азія",
    "name:ca": "Àsia",
    "name:cs": "Asie",
    "name:csb": "Azëjô",
    "name:da": "Asien",
    "name:de": "Asien",
    "name:el": "Ασία",
    "name:en": "Asia",
    "name:eo": "Azio",
    "name:es": "Asia",
    "name:fi": "Aasia",
    "name:fr": "Asie",
    "name:fy": "Aazje",
    "name:ga": "an Áise",
    "name:hi": "एशिया",
    "name:hr": "Azija",
    "name:hu": "Ázsia",
    "name:ia": "Asia",
    "name:io": "Azia",
    "name:is": "Asía",
    "name:it": "Asia",
    "name:jbo": "zdotu'a",
    "name:kn": "ಏಷ್ಯಾ",
    "name:ko": "아시아",
    "name:ku": "Asya",
    "name:la": "Asia",
    "name:li": "Azië",
    "name:lt": "Azija",
    "name:nb": "Asia",
    "name:nl": "Azië",
    "name:nn": "Asia",
    "name:no": "Asia",
    "name:nov": "Asia",
    "name:pl": "Azja",
    "name:pt": "Ásia",
    "name:ru": "Азия",
    "name:sk": "Ázia",
    "name:sl": "Azija",
    "name:sr": "Азија",
    "name:sv": "Asien",
    "name:szl": "Azyjo",
    "name:tl": "Asya",
    "name:tr": "Asya",
    "name:tzl": "Asía",
    "name:uk": "Азія",
    "name:vi": "Châu Á",
    "name:vo": "Siyop",
    "name:zea": "Azië",
    "name:zh": "亚洲",
    "name:zh-classical": "亞洲",
    "name:zh-simplified": "亚洲",
    "name:zh-traditional": "亞洲",
    "place": "continent",
    "population": "4000000000",
    "sqkm": "44614500",
    "wikipedia": "en:Asia"
  }
},
{
  "type": "node",
  "id": 36966069,
  "lat": -21.0002179,
  "lon": -61.0006565,
  "tags": {
    "name": "South America",
    "name:ar": "أمريكا الجنوبية",
    "name:be": "Паўднёвая Амерыка",
    "name:ca": "Amèrica del Sud",
    "name:cs": "Jižní Amerika",
    "name:csb": "Pôłniowô Amerika",
    "name:da": "Sydamerika",
    "name:de": "Südamerika",
    "name:el": "Νότια Αμερική",
    "name:en": "South America",
    "name:eo": "Sudameriko",
    "name:es": "América del Sur",
    "name:eu": "América del Sur",
    "name:fi": "Etelä-Amerikka",
    "name:fr": "Amérique du Sud",
    "name:ga": "Meiriceá Theas",
    "name:hi": "दक्षिण अमेरिका",
    "name:hr": "Južna Amerika",
    "name:hu": "Dél-Amerika",
    "name:ia": "America del Sud",
    "name:io": "Sud-Amerika",
    "name:is": "Suður-Ameríka",
    "name:it": "America meridionale",
    "name:jbo": "tcotu'a",
    "name:kn": "ದಕ್ಷಿಣ ಅಮೇರಿಕ",
    "name:ku": "Amerîkaya Başûr",
    "name:la": "America Australis",
    "name:li": "Zuud-Amerika",
    "name:lt": "Pietų Amerika",
    "name:mi": "Amerika ki te Tonga",
    "name:ms": "Amerika Selatan",
    "name:nb": "Sør-Amerika",
    "name:nl": "Zuid-Amerika",
    "name:nn": "Sør-Amerika",
    "name:no": "Sør-Amerika",
    "name:nov": "Sudi Amerika",
    "name:pl": "Ameryka Południowa",
    "name:pt": "América do Sul",
    "name:ru": "Южная Америка",
    "name:sk": "Južná Amerika",
    "name:sl": "Južna Amerika",
    "name:sr": "Јужна Америка",
    "name:sv": "Sydamerika",
    "name:szl": "Amerika Połedńowo",
    "name:tl": "Timog Amerika",
    "name:tzl": "America Meridional",
    "name:uk": "Південна Америка",
    "name:vi": "Nam Mỹ",
    "name:vo": "Solüda-Merop",
    "name:zea": "Zuud-Amerika",
    "name:zh": "南美洲",
    "name:zh-classical": "南美洲",
    "name:zh-simplified": "南美洲",
    "name:zh-traditional": "南美洲",
    "place": "continent",
    "population": "385742554",
    "sqkm": "17840000",
    "wikipedia": "en:South America"
  }
},
{
  "type": "node",
  "id": 249399679,
  "lat": -18.3128000,
  "lon": 138.5156000,
  "tags": {
    "name": "Oceania",
    "name:ar": "أوقيانوسيا",
    "name:be": "Акіянія",
    "name:ca": "Oceania",
    "name:cs": "Oceánie",
    "name:csb": "Òceaniô",
    "name:da": "Oceanien",
    "name:de": "Ozeanien",
    "name:el": "Ωκεανία",
    "name:en": "Oceania",
    "name:eo": "Oceanio",
    "name:es": "Oceanía",
    "name:fi": "Oseania",
    "name:fr": "Océanie",
    "name:fy": "Oseaanje",
    "name:ga": "An Aigéine",
    "name:hi": "ओशिआनिया",
    "name:hr": "Oceanija",
    "name:hu": "Óceánia",
    "name:ia": "Oceania",
    "name:io": "Oceania",
    "name:is": "Eyjaálfa",
    "name:it": "Oceania",
    "name:jbo": "poltu'a",
    "name:kn": "ಒಷ್ಯಾನಿಯ",
    "name:ku": "Okyanûsya",
    "name:la": "Oceania",
    "name:li": "Oceanië",
    "name:lt": "Okeanija",
    "name:ms": "Oseania",
    "name:nl": "Oceanië",
    "name:nn": "Oseania",
    "name:no": "Oseania",
    "name:nov": "Oseania",
    "name:pl": "Oceania",
    "name:pt": "Oceânia",
    "name:ru": "Океания",
    "name:sk": "Oceánia",
    "name:sl": "Oceanija",
    "name:sr": "Океанија",
    "name:sv": "Oceanien",
    "name:szl": "Uoceańijo",
    "name:tl": "Oceania",
    "name:tr": "Okyanusya",
    "name:tzl": "Oceania",
    "name:uk": "Океанія",
    "name:vi": "Châu Đại Dương",
    "name:vo": "Seanop",
    "name:zea": "Oceanië",
    "name:zh": "大洋洲",
    "name:zh-classical": "大洋洲",
    "name:zh-simplified": "大洋洲",
    "name:zh-traditional": "大洋洲",
    "note": "OSM is using the geopolitical continent system as evident with Australia itself being part of Oceania. Changed from Australia to Oceania, going back to Australia as continent will mean eradication of Europe and Asia and the creation of Eurasia instead.",
    "place": "continent",
    "population": "36000000",
    "sqkm": "8600000",
    "wikipedia": "en:Oceania"
  }
}

  ]
}