{
  "elements": [
    {
      "lat": 36.5748441,
      "lon": 139.2394179,
      "tags": {
        "is_in:continent": "Asie",
        "name:en": "Japan",
        "name:fr": "Japon",
        "population": "127360000",
        "currency": "Yen"
      }
    },
    {
      "lat": -16.5255069,
      "lon": 168.1069154,
      "tags": {
        "is_in:continent": "Oceanie",
        "name:en": "Vanuatu",
        "name:fr": "Vanuatu",
        "population": "215446",
        "currency": "Vatu"
      }
    },
    {
      "lat": 35.0000740,
      "lon": 104.9999270,
      "tags": {
        "is_in:continent": "Asie",
        "name:en": "China",
        "name:fr": "Chine",
        "population": "1300000000",
        "currency": "Yuan chinois"
      }
    },
    {
      "lat": 18.1850507,
      "lon": -77.3947693,
      "tags": {
        "is_in:continent": "Amérique du Nord",
        "name:en": "Jamaica",
        "name:fr": "Jamaïque",
        "population": "2804332",
        "currency": "Dollar jamaïcain"
      }
    },
    {
      "lat": 40.3936294,
      "lon": 47.7872508,
      "tags": {
        "is_in:continent": "Asie",
        "name:en": "Azerbaijan",
        "name:fr": "Azerbaïdjan",
        "population": "9105000",
        "currency": "Manat azerbaïdjanais"
      }
    },
    {
      "lat": -17.0568696,
      "lon": -64.9912286,
      "tags": {
        "is_in:continent": "Amérique du Sud",
        "name:en": "Bolivia",
        "name:fr": "Bolivie",
        "population": "10027254",
        "currency": "Boliviano"
      }
    },
    {
      "lat": -10.3333333,
      "lon": -53.2000000,
      "tags": {
        "is_in:continent": "Amérique du Sud",
        "name:en": "Brazil",
        "name:fr": "Brésil",
        "population": "204450649",
        "currency": "Réal brésilien"
      }
    },
    {
      "lat": -23.1681782,
      "lon": 24.5928742,
      "tags": {
        "is_in:continent": "Afrique",
        "name:en": "Botswana",
        "name:fr": "Botswana",
        "population": "1639833",
        "currency": "Pula"
      }
    },
    {
      "lat": 61.0666922,
      "lon": -107.9917071,
      "tags": {
        "is_in:continent": "Amérique du Nord",
        "name:en": "Canada",
        "name:fr": "Canada",
        "population": "35056064",
        "currency": "Dollar canadien"
      }
    },
    {
      "lat": 49.8167003,
      "lon": 15.4749544,
      "tags": {
        "is_in:continent": "Europe",
        "name:en": "Czech Republic",
        "name:fr": "République tchèque",
        "population": "10516125",
        "currency": "Couronne tchèque"
      }
    },
    {
      "lat": -18.1239696,
      "lon": 179.0122737,
      "tags": {
        "is_in:continent": "Oceanie",
        "name:en": "Fiji",
        "name:fr": "Fidji",
        "population": "931741",
        "currency": "Dollar de Fidji"
      }
    },
    {
      "lat": 58.7523778,
      "lon": 25.3319078,
      "tags": {
        "is_in:continent": "Europe",
        "name:en": "Estonia",
        "name:fr": "Estonie",
        "population": "1307605",
        "currency": "Euro"
      }
    },
    {
      "lat": 8.0300284,
      "lon": -1.0800271,
      "tags": {
        "is_in:continent": "Afrique",
        "name:en": "Ghana",
        "name:fr": "Ghana",
        "population": "25241998",
        "currency": "Cedi"
      }
    },
    {
      "lat": 1.6131720,
      "lon": 10.5170357,
      "tags": {
        "is_in:continent": "Afrique",
        "name:en": "Equatorial Guinea",
        "name:fr": "Guinée équatoriale",
        "population": "1000000",
        "currency": "Franc CFA"
      }
    },
    {
      "lat": -6.4157192,
      "lon": 72.1173961,
      "tags": {
        "is_in:continent": "Afrique",
        "name:en": "British Indian Ocean Territory",
        "name:fr": "Territoire britannique de l'Océan Indien",
        "population": "3500",
        "currency": "Livre Sterling"
      }
    },
    {
      "lat": 1.4419683,
      "lon": 38.4313975,
      "tags": {
        "is_in:continent": "Afrique",
        "name:en": "Kenya",
        "name:fr": "Kenya",
        "population": "38610097",
        "currency": "Shilling kényan"
      }
    },
    {
      "lat": 29.2733964,
      "lon": 47.4979476,
      "tags": {
        "is_in:continent": "Asie",
        "name:en": "Kuwait",
        "name:fr": "Koweït",
        "population": "3399637",
        "currency": "Dinar koweïtien"
      }
    },
    {
      "lat": 16.7417041,
      "lon": -62.1916844,
      "tags": {
        "is_in:continent": "Amérique du Nord",
        "name:en": "Montserrat",
        "name:fr": "Montserrat",
        "population": "4922",
        "currency": "Dollar des Caraïbes orientales"
      }
    },
    {
      "lat": 30.3308401,
      "lon": 71.2474990,
      "tags": {
        "is_in:continent": "Asie",
        "name:en": "Pakistan",
        "name:fr": "Pakistan",
        "population": "172800000",
        "currency": "Roupie pakistanaise"
      }
    },
    {
      "lat": 8.6400349,
      "lon": -11.8400269,
      "tags": {
        "is_in:continent": "Afrique",
        "name:en": "Sierra Leone",
        "name:fr": "Sierra Leone",
        "population": "5293327",
        "currency": "Leone"
      }
    },
    {
      "lat": 22.3511148,
      "lon": 78.6677428,
      "tags": {
        "is_in:continent": "Asie",
        "name:en": "India",
        "name:fr": "Inde",
        "population": "1145587234",
        "currency": "Roupie indienne"
      }
    },
    {
      "lat": 38.6281733,
      "lon": 70.8156541,
      "tags": {
        "is_in:continent": "Asie",
        "name:en": "Tajikistan",
        "name:fr": "Tadjikistan",
        "population": "7215700",
        "currency": "Somoni"
      }
    },
    {
      "lat": -6.5247123,
      "lon": 35.7878438,
      "tags": {
        "is_in:continent": "Afrique",
        "name:en": "Tanzania",
        "name:fr": "Tanzanie",
        "population": "41048532",
        "currency": "Shilling tanzanien"
      }
    },
    {
      "lat": 12.7503486,
      "lon": 122.7312101,
      "tags": {
        "is_in:continent": "Asie",
        "name:en": "Philippines",
        "name:fr": "Philippines",
        "population": "99900177",
        "currency": "Peso philippin"
      }
    },
    {
      "lat": 42.6384261,
      "lon": 12.6742970,
      "tags": {
        "is_in:continent": "Europe",
        "name:en": "Italy",
        "name:fr": "Italie",
        "population": "60665551",
        "currency": "Euro"
      }
    },
    {
      "lat": 33.7680065,
      "lon": 66.2385139,
      "tags": {
        "is_in:continent": "Asie",
        "name:en": "Afghanistan",
        "name:fr": "Afghanistan",
        "population": "32738376",
        "currency": "Afghani"
      }
    },
    {
      "lat": 47.2000338,
      "lon": 13.1999590,
      "tags": {
        "is_in:continent": "Europe",
        "name:en": "Austria",
        "name:fr": "Autriche",
        "population": "8205533",
        "currency": "Euro"
      }
    },
    {
      "lat": 40.0028028,
      "lon": -4.0031040,
      "tags": {
        "is_in:continent": "Europe",
        "name:en": "Spain",
        "name:fr": "Espagne",
        "population": "46157822",
        "currency": "Euro"
      }
    },
    {
      "lat": 42.5407167,
      "lon": 1.5732033,
      "tags": {
        "is_in:continent": "Europe",
        "name:en": "Andorra",
        "name:fr": "Andorre",
        "population": "83888",
        "currency": "Euro"
      }
    },
    {
      "lat": 45.8133113,
      "lon": 14.4808369,
      "tags": {
        "is_in:continent": "Europe",
        "name:en": "Slovenia",
        "name:fr": "Slovénie",
        "population": "2058000",
        "currency": "Euro"
      }
    },
    {
      "lat": 19.0974031,
      "lon": -70.3028026,
      "tags": {
        "is_in:continent": "Amérique du Nord",
        "name:en": "Dominican Republic",
        "name:fr": "République Dominicaine",
        "population": "10464474",
        "currency": "Peso dominicain"
      }
    },
    {
      "lat": -41.5000831,
      "lon": 172.8344077,
      "tags": {
        "is_in:continent": "Oceanie",
        "name:en": "New Zealand",
        "name:fr": "Nouvelle-Zélande",
        "population": "4433100",
        "currency": "Dollar néo-zélandais"
      }
    },
    {
      "lat": 40.7696272,
      "lon": 44.6736646,
      "tags": {
        "is_in:continent": "Europe",
        "name:en": "Armenia",
        "name:fr": "Arménie",
        "population": "2968586",
        "currency": "Dram"
      }
    },
    {
      "lat": -34.9964963,
      "lon": -64.9672817,
      "tags": {
        "is_in:continent": "Amérique du Sud",
        "name:en": "Argentina",
        "name:fr": "Argentine",
        "population": "40117096",
        "currency": "Peso argentin"
      }
    },
    {
      "lat": 13.1500331,
      "lon": -59.5250305,
      "tags": {
        "is_in:continent": "Amérique du Nord",
        "name:en": "Barbados",
        "name:fr": "Barbade",
        "population": "286705",
        "currency": "Dollar barbadien"
      }
    },
    {
      "lat": 12.0753083,
      "lon": -1.6880314,
      "tags": {
        "is_in:continent": "Afrique",
        "name:en": "Burkina Faso",
        "name:fr": "Burkina Faso",
        "population": "16751455",
        "currency": "Franc CFA"
      }
    },
    {
      "lat": 24.7736546,
      "lon": -78.0000547,
      "tags": {
        "is_in:continent": "Amérique du Nord",
        "name:en": "Bahamas",
        "name:fr": "Bahamas",
        "population": "353658",
        "currency": "Dollar bahaméen"
      }
    },
    {
      "lat": 53.4250605,
      "lon": 27.6971358,
      "tags": {
        "is_in:continent": "Europe",
        "name:en": "Belarus",
        "name:fr": "Biélorussie",
        "population": "9689800",
        "currency": "Rouble biélorusse"
      }
    },
    {
      "lat": -16.0492781,
      "lon": -160.3554851,
      "tags": {
        "is_in:continent": "Oceanie",
        "name:en": "Cook Islands",
        "name:fr": "Îles Cook",
        "population": "18600",
        "currency": "Dollar des Îles Cook"
      }
    },
    {
      "lat": 23.0131338,
      "lon": -80.8328748,
      "tags": {
        "is_in:continent": "Amérique du Nord",
        "name:en": "Cuba",
        "name:fr": "Cuba",
        "population": "11451652",
        "currency": "Peso cubain"
      }
    },
    {
      "lat": -54.8432857,
      "lon": -35.8090698,
      "tags": {
        "is_in:continent": "Amérique du Sud",
        "name:en": "South Georgia and South Sandwich Islands",
        "name:fr": "Géorgie du Sud-et-les Îles Sandwich du Sud",
        "population": "30",
        "currency": "Livre sterling"
      }
    },
    {
      "lat": 47.1817585,
      "lon": 19.5060937,
      "tags": {
        "is_in:continent": "Europe",
        "name:en": "Hungary",
        "name:fr": "Hongrie",
        "population": "9930915",
        "currency": "Forint"
      }
    },
    {
      "lat": -12.2045176,
      "lon": 44.2832964,
      "tags": {
        "is_in:continent": "Afrique",
        "name:en": "Comoros",
        "name:fr": "Comores",
        "population": "614000",
        "currency": "Franc comorien"
      }
    },
    {
      "lat": 40.3123959,
      "lon": 127.3999710,
      "tags": {
        "is_in:continent": "Asie",
        "name:en": "North Korea",
        "name:fr": "Corée du Nord",
        "population": "24052231",
        "currency": "Won nord-coréen"
      }
    },
    {
      "lat": 35.3985008,
      "lon": 127.9371110,
      "tags": {
        "is_in:continent": "Asie",
        "name:en": "South Korea",
        "name:fr": "Corée du Sud",
        "population": "50000000",
        "currency": "Won sud-coréen"
      }
    },
    {
      "lat": 19.5417212,
      "lon": -80.5667132,
      "tags": {
        "is_in:continent": "Amérique du Nord",
        "name:en": "Cayman Islands",
        "name:fr": "Îles Caïmans",
        "population": "49035",
        "currency": "Dollar des îles Caïmans"
      }
    },
    {
      "lat": 4.5693754,
      "lon": 102.2656823,
      "tags": {
        "is_in:continent": "Asie",
        "name:en": "Malaysia",
        "name:fr": "Malaisie",
        "population": "28334135",
        "currency": "Ringgit"
      }
    },
    {
      "lat": 28.1082107,
      "lon": 84.0917515,
      "tags": {
        "is_in:continent": "Asie",
        "name:en": "Nepal",
        "name:fr": "Népal",
        "population": "29519114",
        "currency": "Roupie népalaise"
      }
    },
    {
      "lat": -6.8699697,
      "lon": -75.0458515,
      "tags": {
        "is_in:continent": "Amérique du Sud",
        "name:en": "Peru",
        "name:fr": "Pérou",
        "population": "29180899",
        "currency": "Nouveau sol"
      }
    },
    {
      "lat": 25.6242618,
      "lon": 42.3528328,
      "tags": {
        "is_in:continent": "Asie",
        "name:en": "Saudi Arabia",
        "name:fr": "Arabie saoudite",
        "population": "27000000",
        "currency": "Riyal saoudien"
      }
    },
    {
      "lat": 0.8875498,
      "lon": 6.9648718,
      "tags": {
        "is_in:continent": "Afrique",
        "name:en": "São Tomé and Príncipe",
        "name:fr": "Sao Tomé-et-Principe",
        "population": "206178",
        "currency": "Dobra"
      }
    },
    {
      "lat": 39.3763807,
      "lon": 59.3924609,
      "tags": {
        "is_in:continent": "Asie",
        "name:en": "Turkmenistan",
        "name:fr": "Turkménistan",
        "population": "5110023",
        "currency": "Manat turkmène"
      }
    },
    {
      "lat": 10.8677845,
      "lon": -60.9821067,
      "tags": {
        "is_in:continent": "Amérique du Nord",
        "name:en": "Trinidad and Tobago",
        "name:fr": "Trinité-et-Tobago",
        "population": "1328019",
        "currency": "Dollar de Trinité-et-Tobago"
      }
    },
    {
      "lat": 16.3471243,
      "lon": 47.8915271,
      "tags": {
        "is_in:continent": "Asie",
        "name:en": "Yemen",
        "name:fr": "Yémen",
        "population": "24184000",
        "currency": "Riyal yéménite"
      }
    },
    {
      "lat": 18.0423736,
      "lon": -63.0549948,
      "tags": {
        "is_in:continent": "Amérique du Nord",
        "name:en": "Sint Maarten",
        "name:fr": "Saint-Martin",
        "population": "37429",
        "currency": "Euro"
      }
    },
    {
      "lat": 16.8259793,
      "lon": -88.7600927,
      "tags": {
        "is_in:continent": "Amérique du Nord",
        "name:en": "Belize",
        "name:fr": "Bélize",
        "population": "327719",
        "currency": "Dollar bélizien"
      }
    },
    {
      "lat": 44.1534121,
      "lon": 20.5514400,
      "tags": {
        "is_in:continent": "Europe",
        "name:en": "Serbia",
        "name:fr": "Serbie",
        "population": "10159046",
        "currency": "Dinar serbe"
      }
    },
    {
      "lat": 60.5000209,
      "lon": 9.0999715,
      "tags": {
        "is_in:continent": "Europe",
        "name:en": "Norway",
        "name:fr": "Norvège",
        "population": "4785200",
        "currency": "Couronne norvégienne"
      }
    },
    {
      "lat": 26.1551249,
      "lon": 50.5344606,
      "tags": {
        "is_in:continent": "Asie",
        "name:en": "Bahrain",
        "name:fr": "Bahreïn",
        "population": "1234571",
        "currency": "Dinar bahreïni"
      }
    },
    {
      "lat": 52.5001698,
      "lon": 5.7480821,
      "tags": {
        "is_in:continent": "Europe",
        "name:en": "The Netherlands",
        "name:fr": "Pays-Bas",
        "population": "16645313",
        "currency": "Euro"
      }
    },
    {
      "lat": 19.1399952,
      "lon": -72.3570972,
      "tags": {
        "is_in:continent": "Amérique du Nord",
        "name:en": "Haiti",
        "name:fr": "Haïti",
        "population": "9801664",
        "currency": "Gourde"
      }
    },
    {
      "lat": 9.5293472,
      "lon": 2.2584408,
      "tags": {
        "is_in:continent": "Afrique",
        "name:en": "Benin",
        "name:fr": "Bénin",
        "population": "8971944",
        "currency": "Franc CFA"
      }
    },
    {
      "lat": 10.2735633,
      "lon": -84.0739102,
      "tags": {
        "is_in:continent": "Amérique du Nord",
        "name:en": "Costa Rica",
        "name:fr": "Costa Rica",
        "population": "4301712",
        "currency": "Colón costaricien"
      }
    },
    {
      "lat": 15.4113138,
      "lon": -61.3653618,
      "tags": {
        "is_in:continent": "Amérique du Nord",
        "name:en": "Dominica",
        "name:fr": "Dominique",
        "population": "72514",
        "currency": "Dollar des Caraïbes orientales"
      }
    },
    {
      "lat": 13.4700620,
      "lon": -15.4900464,
      "tags": {
        "is_in:continent": "Afrique",
        "name:en": "Gambia",
        "name:fr": "Gambie",
        "population": "1713267",
        "currency": "Dalasi"
      }
    },
    {
      "lat": 10.7226226,
      "lon": -10.7083587,
      "tags": {
        "is_in:continent": "Afrique",
        "name:en": "Guinea",
        "name:fr": "Guinée",
        "population": "10187320",
        "currency": "Franc guinéen"
      }
    },
    {
      "lat": 12.1000350,
      "lon": -14.9000214,
      "tags": {
        "is_in:continent": "Afrique",
        "name:en": "Guinea-Bissau",
        "name:fr": "Guinée-Bissau",
        "population": "1449230",
        "currency": "Franc CFA"
      }
    },
    {
      "lat": 15.0610686,
      "lon": -84.5978534,
      "tags": {
        "is_in:continent": "Amérique du Nord",
        "name:en": "Honduras",
        "name:fr": "Honduras",
        "population": "7989415",
        "currency": "Lempira"
      }
    },
    {
      "lat": 30.8760272,
      "lon": 35.0015196,
      "tags": {
        "is_in:continent": "Asie",
        "name:en": "Israel",
        "name:fr": "Israël",
        "population": "7836300",
        "currency": "Shekel"
      }
    },
    {
      "lat": 33.8750629,
      "lon": 35.8434090,
      "tags": {
        "is_in:continent": "Asie",
        "name:en": "Lebanon",
        "name:fr": "Liban",
        "population": "3971000",
        "currency": "Livre libanaise"
      }
    },
    {
      "lat": 2.8894434,
      "lon": -73.7838920,
      "tags": {
        "is_in:continent": "Amérique du Sud",
        "name:en": "Colombia",
        "name:fr": "Colombie",
        "population": "44050548",
        "currency": "Peso colombien"
      }
    },
    {
      "lat": 7.9897371,
      "lon": -5.5679458,
      "tags": {
        "is_in:continent": "Afrique",
        "name:en": "Ivory Coast",
        "name:fr": "Côte d'Ivoire",
        "population": "20152894",
        "currency": "Franc CFA"
      }
    },
    {
      "lat": 64.9841821,
      "lon": -18.1059013,
      "tags": {
        "is_in:continent": "Europe",
        "name:en": "Iceland",
        "name:fr": "Islande",
        "population": "320000",
        "currency": "Couronne islandaise"
      }
    },
    {
      "lat": 64.6863136,
      "lon": 97.7453061,
      "tags": {
        "is_in:continent": "Europe",
        "name:en": "Russia",
        "name:fr": "Russie",
        "population": "143142000",
        "currency": "Rouble russe"
      }
    },
    {
      "lat": 21.0000287,
      "lon": 57.0036901,
      "tags": {
        "is_in:continent": "Asie",
        "name:en": "Oman",
        "name:fr": "Oman",
        "population": "2577000",
        "currency": "Rial omanais"
      }
    },
    {
      "lat": -24.7761086,
      "lon": 134.7550000,
      "tags": {
        "is_in:continent": "Oceanie",
        "name:en": "Australia",
        "name:fr": "Australie",
        "population": "20600856",
        "currency": "Dollar australien"
      }
    },
    {
      "lat": 42.6073975,
      "lon": 25.4856617,
      "tags": {
        "is_in:continent": "Europe",
        "name:en": "Bulgaria",
        "name:fr": "Bulgarie",
        "population": "7364570",
        "currency": "Lev bulgare"
      }
    },
    {
      "lat": 4.6125522,
      "lon": 13.1535811,
      "tags": {
        "is_in:continent": "Afrique",
        "name:en": "Cameroon",
        "name:fr": "Cameroun",
        "population": "20549221",
        "currency": "Franc CFA"
      }
    },
    {
      "lat": 26.2540493,
      "lon": 29.2675469,
      "tags": {
        "is_in:continent": "Afrique",
        "name:en": "Egypt",
        "name:fr": "Égypte",
        "population": "83082869",
        "currency": "Livre égyptienne"
      }
    },
    {
      "lat": 15.9500319,
      "lon": 37.9999668,
      "tags": {
        "is_in:continent": "Afrique",
        "name:en": "Eritrea",
        "name:fr": "Érythrée",
        "population": "5293800",
        "currency": "Nakfa érythréen"
      }
    },
    {
      "lat": 12.1360374,
      "lon": -61.6904045,
      "tags": {
        "is_in:continent": "Amérique du Nord",
        "name:en": "Grenada",
        "name:fr": "Grenade",
        "population": "107850",
        "currency": "Dollar des Caraïbes orientales"
      }
    },
    {
      "lat": 33.0955793,
      "lon": 44.1749775,
      "tags": {
        "is_in:continent": "Asie",
        "name:en": "Iraq",
        "name:fr": "Irak",
        "population": "28946000",
        "currency": "Dinar irakien"
      }
    },
    {
      "lat": 31.1667049,
      "lon": 36.9416280,
      "tags": {
        "is_in:continent": "Asie",
        "name:en": "Jordan",
        "name:fr": "Jordanie",
        "population": "6343000",
        "currency": "Dinar jordanien"
      }
    },
    {
      "lat": 20.0171109,
      "lon": 103.3782530,
      "tags": {
        "is_in:continent": "Asie",
        "name:en": "Laos",
        "name:fr": "Laos",
        "population": "6200894",
        "currency": "Kip laotien"
      }
    },
    {
      "lat": 13.8250489,
      "lon": -60.9750360,
      "tags": {
        "is_in:continent": "Amérique du Nord",
        "name:en": "Saint Lucia",
        "name:fr": "Sainte-Lucie",
        "population": "173907",
        "currency": "Dollar des Caraïbes orientales"
      }
    },
    {
      "lat": 47.2867470,
      "lon": 28.5110236,
      "tags": {
        "is_in:continent": "Europe",
        "name:en": "Moldova",
        "name:fr": "Moldavie",
        "population": "4128047",
        "currency": "Leu moldave"
      }
    },
    {
      "lat": 17.1750495,
      "lon": 95.9999652,
      "tags": {
        "is_in:continent": "Asie",
        "name:en": "Myanmar",
        "name:fr": "Birmanie",
        "population": "55167330",
        "currency": "Kyat"
      }
    },
    {
      "lat": 20.2540382,
      "lon": -9.2399263,
      "tags": {
        "is_in:continent": "Afrique",
        "name:en": "Mauritania",
        "name:fr": "Mauritanie",
        "population": "3205060",
        "currency": "Ouguiya"
      }
    },
    {
      "lat": 9.6000359,
      "lon": 7.9999721,
      "tags": {
        "is_in:continent": "Afrique",
        "name:en": "Nigeria",
        "name:fr": "Nigéria",
        "population": "152217341",
        "currency": "Naira"
      }
    },
    {
      "lat": 12.3724928,
      "lon": -84.8700308,
      "tags": {
        "is_in:continent": "Amérique du Nord",
        "name:en": "Nicaragua",
        "name:fr": "Nicaragua",
        "population": "5727707",
        "currency": "Cordoba"
      }
    },
    {
      "lat": 8.3096067,
      "lon": -81.3066246,
      "tags": {
        "is_in:continent": "Amérique du Nord",
        "name:en": "Panama",
        "name:fr": "Panama",
        "population": "3332576",
        "currency": "Balboa panaméen"
      }
    },
    {
      "lat": 43.9458623,
      "lon": 12.4583060,
      "tags": {
        "is_in:continent": "Europe",
        "name:en": "San Marino",
        "name:fr": "Saint-Marin",
        "population": "32471",
        "currency": "Euro"
      }
    },
    {
      "lat": 8.3676771,
      "lon": 49.0834160,
      "tags": {
        "is_in:continent": "Afrique",
        "name:en": "Somalia",
        "name:fr": "Somalie",
        "population": "9558666",
        "currency": "Shilling somalien"
      }
    },
    {
      "lat": 33.8439408,
      "lon": 9.4001380,
      "tags": {
        "is_in:continent": "Afrique",
        "name:en": "Tunisia",
        "name:fr": "Tunisie",
        "population": "10276158",
        "currency": "Dinar tunisien"
      }
    },
    {
      "lat": -7.7689590,
      "lon": 178.1167698,
      "tags": {
        "is_in:continent": "Oceanie",
        "name:en": "Tuvalu",
        "name:fr": "Tuvalu",
        "population": "10000",
        "currency": "Dollar australien"
      }
    },
    {
      "lat": 1.5333554,
      "lon": 32.2166578,
      "tags": {
        "is_in:continent": "Afrique",
        "name:en": "Uganda",
        "name:fr": "Ouganda",
        "population": "34509205",
        "currency": "Shilling ougandais"
      }
    },
    {
      "lat": 41.3237300,
      "lon": 63.9528098,
      "tags": {
        "is_in:continent": "Asie",
        "name:en": "Uzbekistan",
        "name:fr": "Ouzbékistan",
        "population": "29735700",
        "currency": "Sum"
      }
    },
    {
      "lat": 39.7837304,
      "lon": -100.4458825,
      "tags": {
        "is_in:continent": "Amérique du Nord",
        "name:en": "United States of America",
        "name:fr": "États-Unis d'Amérique",
        "population": "324720797",
        "currency": "Dollar américain"
      }
    },
    {
      "lat": 28.0000272,
      "lon": 2.9999825,
      "tags": {
        "is_in:continent": "Afrique",
        "name:en": "Algeria",
        "name:fr": "Algérie",
        "population": "40263711",
        "currency": "Dinar algérien"
      }
    },
    {
      "lat": 17.0791280,
      "lon": -61.8222516,
      "tags": {
        "is_in:continent": "Amérique du Nord",
        "name:en": "Antigua and Barbuda",
        "name:fr": "Antigua-et-Barbuda",
        "population": "69842",
        "currency": "Dollar des Caraïbes orientales"
      }
    },
    {
      "lat": 24.4768783,
      "lon": 90.2932426,
      "tags": {
        "is_in:continent": "Asie",
        "name:en": "Bangladesh",
        "name:fr": "Bangladesh",
        "population": "162221000",
        "currency": "Taka"
      }
    },
    {
      "lat": 13.5066394,
      "lon": 104.8694230,
      "tags": {
        "is_in:continent": "Asie",
        "name:en": "Cambodia",
        "name:fr": "Cambodge",
        "population": "14138255",
        "currency": "Riel"
      }
    },
    {
      "lat": 7.0323598,
      "lon": 19.9981227,
      "tags": {
        "is_in:continent": "Afrique",
        "name:en": "Central African Republic",
        "name:fr": "Centrafrique",
        "population": "4500000",
        "currency": "Franc CFA"
      }
    },
    {
      "lat": 55.6702490,
      "lon": 10.3333283,
      "tags": {
        "is_in:continent": "Europe",
        "name:en": "Denmark",
        "name:fr": "Danemark",
        "population": "5475791",
        "currency": "Couronne danoise"
      }
    },
    {
      "lat": -8.5151979,
      "lon": 125.8375756,
      "tags": {
        "is_in:continent": "Asie",
        "name:en": "East Timor",
        "name:fr": "Timor Oriental",
        "population": "1115000",
        "currency": "Dollar américain"
      }
    },
    {
      "lat": 63.2467777,
      "lon": 25.9209164,
      "tags": {
        "is_in:continent": "Europe",
        "name:en": "Finland",
        "name:fr": "Finlande",
        "population": "5429894",
        "currency": "Euro"
      }
    },
    {
      "lat": 41.6809707,
      "lon": 44.0287382,
      "tags": {
        "is_in:continent": "Europe",
        "name:en": "Georgia",
        "name:fr": "Géorgie",
        "population": "4630841",
        "currency": "Lari"
      }
    },
    {
      "lat": 38.9953683,
      "lon": 21.9877132,
      "tags": {
        "is_in:continent": "Europe",
        "name:en": "Greece",
        "name:fr": "Grèce",
        "population": "11260402",
        "currency": "Euro"
      }
    },
    {
      "lat": 0.4483283,
      "lon": -171.6645388,
      "tags": {
        "is_in:continent": "Oceanie",
        "name:en": "Kiribati",
        "name:fr": "Kiribati",
        "population": "103000",
        "currency": "Dollar des kiribati"
      }
    },
    {
      "lat": 56.8666904,
      "lon": 24.5999717,
      "tags": {
        "is_in:continent": "Europe",
        "name:en": "Latvia",
        "name:fr": "Lettonie",
        "population": "2027000",
        "currency": "Euro"
      }
    },
    {
      "lat": 26.8234472,
      "lon": 18.1236723,
      "tags": {
        "is_in:continent": "Afrique",
        "name:en": "Libya",
        "name:fr": "Libye",
        "population": "5613380",
        "currency": "Dinar libyen"
      }
    },
    {
      "lat": -18.9249604,
      "lon": 46.4416422,
      "tags": {
        "is_in:continent": "Afrique",
        "name:en": "Madagascar",
        "name:fr": "Madagascar",
        "population": "22005222",
        "currency": "Ariary"
      }
    },
    {
      "lat": 22.5000485,
      "lon": -100.0000375,
      "tags": {
        "is_in:continent": "Amérique du Nord",
        "name:en": "Mexico",
        "name:fr": "Mexique",
        "population": "112322757",
        "currency": "Peso mexicain"
      }
    },
    {
      "lat": 46.8250388,
      "lon": 103.8499736,
      "tags": {
        "is_in:continent": "Asie",
        "name:en": "Mongolia",
        "name:fr": "Mongolie",
        "population": "3179997",
        "currency": "Tugrik"
      }
    },
    {
      "lat": 31.1728192,
      "lon": -7.3366043,
      "tags": {
        "is_in:continent": "Afrique",
        "name:en": "Morocco",
        "name:fr": "Maroc",
        "population": "33848242",
        "currency": "Dirham marocain"
      }
    },
    {
      "lat": 52.0977181,
      "lon": 19.0258159,
      "tags": {
        "is_in:continent": "Europe",
        "name:en": "Poland",
        "name:fr": "Pologne",
        "population": "38186860",
        "currency": "Złoty"
      }
    },
    {
      "lat": 18.1954947,
      "lon": -63.0750234,
      "tags": {
        "is_in:continent": "Amérique du Nord",
        "name:en": "Anguilla",
        "name:fr": "Anguilla",
        "population": "15423",
        "currency": "Dollar des Caraïbes orientales"
      }
    },
    {
      "lat": 32.3018217,
      "lon": -64.7603583,
      "tags": {
        "is_in:continent": "Amérique du Nord",
        "name:en": "Bermuda",
        "name:fr": "Bermudes",
        "population": "66163",
        "currency": "Dollar bermudien"
      }
    },
    {
      "lat": 49.2214561,
      "lon": -2.1358386,
      "tags": {
        "is_in:continent": "Europe",
        "name:en": "Jersey",
        "name:fr": "Jersey",
        "population": "97857",
        "currency": "Livre Sterling"
      }
    },
    {
      "lat": -19.0536414,
      "lon": -169.8613411,
      "tags": {
        "is_in:continent": "Oceanie",
        "name:en": "Niue",
        "name:fr": "Niue",
        "population": "1269",
        "currency": "Dollar néo-zélandais"
      }
    },
    {
      "lat": -9.1676396,
      "lon": -171.8196878,
      "tags": {
        "is_in:continent": "Oceanie",
        "name:en": "Tokelau",
        "name:fr": "Tokelau",
        "population": "1411",
        "currency": "Dollar néo-zélandais"
      }
    },
    {
      "lat": -2.9814344,
      "lon": 23.8222636,
      "tags": {
        "is_in:continent": "Afrique",
        "name:en": "Democratic Republic of the Congo",
        "name:fr": "République démocratique du Congo",
        "population": "68692542",
        "currency": "Franc CFA"
      }
    },
    {
      "lat": 14.8971921,
      "lon": 100.8327300,
      "tags": {
        "is_in:continent": "Asie",
        "name:en": "Thailand",
        "name:fr": "Thaïlande",
        "population": "69522234",
        "currency": "Baht"
      }
    },
    {
      "lat": 43.0285558,
      "lon": 19.2917390,
      "tags": {
        "is_in:continent": "Europe",
        "name:en": "Montenegro",
        "name:fr": "Monténégro",
        "population": "678177",
        "currency": "Euro"
      }
    },
    {
      "lat": 43.1500226,
      "lon": 41.2299786,
      "tags": {
        "is_in:continent": "Europe",
        "name:en": "Abkhazia",
        "name:fr": "Abkhazie",
        "population": "240705",
        "currency": "Rouble russe"
      }
    },
    {
      "lat": -82.1081822,
      "lon": 34.3782400,
      "tags": {
        "is_in:continent": "Antarctique",
        "name:en": "Antarctica",
        "name:fr": "Antarctique",
        "population": "0",
        "currency": "Aucune devise"
      }
    },
    {
      "lat": -14.2893040,
      "lon": -170.6925110,
      "tags": {
        "is_in:continent": "Oceanie",
        "name:en": "American Samoa",
        "name:fr": "Samoa Américaines",
        "population": "65600",
        "currency": "Dollar américain"
      }
    },
    {
      "lat": 13.5394645,
      "lon": 144.8970036,
      "tags": {
        "is_in:continent": "Oceanie",
        "name:en": "Guam",
        "name:fr": "Guam",
        "population": "185427",
        "currency": "Dollar américain"
      }
    },
    {
      "lat": -9.7354344,
      "lon": 162.8288542,
      "tags": {
        "is_in:continent": "Oceanie",
        "name:en": "Solomon Islands",
        "name:fr": "Salomon",
        "population": "538000",
        "currency": "Dollar des îles Salomon"
      }
    },
    {
      "lat": 54.7023545,
      "lon": -3.2765753,
      "tags": {
        "is_in:continent": "Europe",
        "name:en": "United Kingdom",
        "name:fr": "Royaume-Uni",
        "population": "61792000",
        "currency": "Livre Sterling"
      }
    },
    {
      "lat": 7.8699431,
      "lon": 29.6667897,
      "tags": {
        "is_in:continent": "Afrique",
        "name:en": "South Sudan",
        "name:fr": "Sud-Soudan",
        "population": "8260490",
        "currency": "Livre sud-soudanaise"
      }
    },
    {
      "lat": 16.0000552,
      "lon": -24.0083947,
      "tags": {
        "is_in:continent": "Afrique",
        "name:en": "Cabo Verde",
        "name:fr": "Cap-Vert",
        "population": "516000",
        "currency": "Escudo cap-verdien"
      }
    },
    {
      "lat": -3.3634357,
      "lon": 29.8870575,
      "tags": {
        "is_in:continent": "Afrique",
        "name:en": "Burundi",
        "name:fr": "Burundi",
        "population": "10557000",
        "currency": "Franc burundais"
      }
    },
    {
      "lat": 27.5495110,
      "lon": 90.5119273,
      "tags": {
        "is_in:continent": "Asie",
        "name:en": "Bhutan",
        "name:fr": "Bhoutan",
        "population": "672425",
        "currency": "Ngultrum"
      }
    },
    {
      "lat": -31.7613365,
      "lon": -71.3187697,
      "tags": {
        "is_in:continent": "Amérique du Sud",
        "name:en": "Chile",
        "name:fr": "Chili",
        "population": "16634603",
        "currency": "Peso chilien"
      }
    },
    {
      "lat": -51.9666424,
      "lon": -59.5500387,
      "tags": {
        "is_in:continent": "Amérique du Sud",
        "name:en": "Falkland Islands",
        "name:fr": "Îles Malouines (Îles Falkland)",
        "population": "2955",
        "currency": "Livre des Îles Malouines"
      }
    },
    {
      "lat": 5.5600565,
      "lon": 150.1982846,
      "tags": {
        "is_in:continent": "Oceanie",
        "name:en": "Federated States of Micronesia",
        "name:fr": "Micronésie",
        "population": "112000",
        "currency": "Dollar américain"
      }
    },
    {
      "lat": -0.8999695,
      "lon": 11.6899699,
      "tags": {
        "is_in:continent": "Afrique",
        "name:en": "Gabon",
        "name:fr": "Gabon",
        "population": "1576665",
        "currency": "Franc CFA"
      }
    },
    {
      "lat": 4.8417097,
      "lon": -58.6416891,
      "tags": {
        "is_in:continent": "Amérique du Sud",
        "name:en": "Guyana",
        "name:fr": "Guyana",
        "population": "752940",
        "currency": "Dollar guyanien"
      }
    },
    {
      "lat": 45.5643442,
      "lon": 17.0118954,
      "tags": {
        "is_in:continent": "Europe",
        "name:en": "Croatia",
        "name:fr": "Croatie",
        "population": "4284889",
        "currency": "Kuna croate"
      }
    },
    {
      "lat": 47.2286086,
      "lon": 65.2093197,
      "tags": {
        "is_in:continent": "Asie",
        "name:en": "Kazakhstan",
        "name:fr": "Kazakhstan",
        "population": "15217711",
        "currency": "Tenge kazakh"
      }
    },
    {
      "lat": 5.7499721,
      "lon": -9.3658524,
      "tags": {
        "is_in:continent": "Afrique",
        "name:en": "Liberia",
        "name:fr": "Libéria",
        "population": "3476608",
        "currency": "Dollar libérien"
      }
    },
    {
      "lat": 4.7064352,
      "lon": 73.3287853,
      "tags": {
        "is_in:continent": "Asie",
        "name:en": "Maldives",
        "name:fr": "Maldives",
        "population": "328536",
        "currency": "Rufiyaa"
      }
    },
    {
      "lat": -13.2687204,
      "lon": 33.9301963,
      "tags": {
        "is_in:continent": "Afrique",
        "name:en": "Malawi",
        "name:fr": "Malawi",
        "population": "14212000",
        "currency": "Kwacha malawien"
      }
    },
    {
      "lat": -19.3022330,
      "lon": 34.9144977,
      "tags": {
        "is_in:continent": "Afrique",
        "name:en": "Mozambique",
        "name:fr": "Mozambique",
        "population": "21397000",
        "currency": "Metical"
      }
    },
    {
      "lat": -23.2335499,
      "lon": 17.3231107,
      "tags": {
        "is_in:continent": "Afrique",
        "name:en": "Namibia",
        "name:fr": "Namibie",
        "population": "2113077",
        "currency": "Dollar namibien"
      }
    },
    {
      "lat": 17.7356214,
      "lon": 9.3238432,
      "tags": {
        "is_in:continent": "Afrique",
        "name:en": "Niger",
        "name:fr": "Niger",
        "population": "17129076",
        "currency": "Franc CFA"
      }
    },
    {
      "lat": -29.0328038,
      "lon": 167.9483137,
      "tags": {
        "is_in:continent": "Oceanie",
        "name:en": "Norfolk Island",
        "name:fr": "Île Norfolk",
        "population": "2169",
        "currency": "Dollar australien"
      }
    },
    {
      "lat": -1.9646631,
      "lon": 30.0644358,
      "tags": {
        "is_in:continent": "Afrique",
        "name:en": "Rwanda",
        "name:fr": "Rwanda",
        "population": "11400000",
        "currency": "Franc rwandais"
      }
    },
    {
      "lat": 13.8000382,
      "lon": -88.9140683,
      "tags": {
        "is_in:continent": "Amérique du Nord",
        "name:en": "El Salvador",
        "name:fr": "Salvador",
        "population": "6000000",
        "currency": "Dollar américain"
      }
    },
    {
      "lat": 34.6401861,
      "lon": 39.0494106,
      "tags": {
        "is_in:continent": "Asie",
        "name:en": "Syria",
        "name:fr": "Syrie",
        "population": "18860588",
        "currency": "Livre syrienne"
      }
    },
    {
      "lat": 21.7214683,
      "lon": -71.6201783,
      "tags": {
        "is_in:continent": "Amérique du Nord",
        "name:en": "Turks and Caicos Islands",
        "name:fr": "Îles Turques-et-Caïques",
        "population": "41000",
        "currency": "Dollar américain"
      }
    },
    {
      "lat": 8.7800265,
      "lon": 1.0199765,
      "tags": {
        "is_in:continent": "Afrique",
        "name:en": "Togo",
        "name:fr": "Togo",
        "population": "6587239",
        "currency": "Franc CFA"
      }
    },
    {
      "lat": 14.5844444,
      "lon": 29.4917691,
      "tags": {
        "is_in:continent": "Afrique",
        "name:en": "Sudan",
        "name:fr": "Soudan",
        "population": "39379358",
        "currency": "Livre soudanaise"
      }
    },
    {
      "lat": 49.8158683,
      "lon": 6.1296751,
      "tags": {
        "is_in:continent": "Europe",
        "name:en": "Luxembourg",
        "name:fr": "Luxembourg",
        "population": "493500",
        "currency": "Euro"
      }
    },
    {
      "lat": 15.6134137,
      "lon": 19.0156172,
      "tags": {
        "is_in:continent": "Afrique",
        "name:en": "Chad",
        "name:fr": "Tchad",
        "population": "10329208",
        "currency": "Franc CFA"
      }
    },
    {
      "lat": 13.2904027,
      "lon": 108.4265113,
      "tags": {
        "is_in:continent": "Asie",
        "name:en": "Vietnam",
        "name:fr": "Viêt Nam",
        "population": "91519289",
        "currency": "Dong"
      }
    },
    {
      "lat": -28.8166236,
      "lon": 24.9916390,
      "tags": {
        "is_in:continent": "Afrique",
        "name:en": "South Africa",
        "name:fr": "Afrique du Sud",
        "population": "53000000",
        "currency": "Rand"
      }
    },
    {
      "lat": -1.3397668,
      "lon": -79.3666965,
      "tags": {
        "is_in:continent": "Amérique du Sud",
        "name:en": "Ecuador",
        "name:fr": "Équateur",
        "population": "13755680",
        "currency": "Dollar américain"
      }
    },
    {
      "lat": -4.6574977,
      "lon": 55.4540146,
      "tags": {
        "is_in:continent": "Afrique",
        "name:en": "Seychelles",
        "name:fr": "Seychelles",
        "population": "90024",
        "currency": "Roupie seychelloise"
      }
    },
    {
      "lat": 32.9407496,
      "lon": 52.9471344,
      "tags": {
        "is_in:continent": "Asie",
        "name:en": "Iran",
        "name:fr": "Iran",
        "population": "70472846",
        "currency": "Rial iranien"
      }
    },
    {
      "lat": 38.9597594,
      "lon": 34.9249653,
      "tags": {
        "is_in:continent": "Europe",
        "name:en": "Turkey",
        "name:fr": "Turquie",
        "population": "75627384",
        "currency": "Livre turque"
      }
    },
    {
      "lat": 41.0000280,
      "lon": 19.9999619,
      "tags": {
        "is_in:continent": "Europe",
        "name:en": "Albania",
        "name:fr": "Albanie",
        "population": "3619778",
        "currency": "Lek"
      }
    },
    {
      "lat": -26.5624806,
      "lon": 31.3991317,
      "tags": {
        "is_in:continent": "Afrique",
        "name:en": "Swaziland",
        "name:fr": "Swaziland",
        "population": "1370424",
        "currency": "Lilangeni"
      }
    },
    {
      "lat": 24.0002488,
      "lon": 53.9994829,
      "tags": {
        "is_in:continent": "Asie",
        "name:en": "United Arab Emirates",
        "name:fr": "Émirats arabes unis",
        "population": "4600000",
        "currency": "Dirham des Emirats arabes unis"
      }
    },
    {
      "lat": 17.3462278,
      "lon": -62.7687277,
      "tags": {
        "is_in:continent": "Amérique du Nord",
        "name:en": "Saint Kitts and Nevis",
        "name:fr": "Saint-Christophe-et-Niévès",
        "population": "42696",
        "currency": "Dollar des Caraïbes orientales"
      }
    },
    {
      "lat": -11.8775768,
      "lon": 17.5691241,
      "tags": {
        "is_in:continent": "Afrique",
        "name:en": "Angola",
        "name:fr": "Angola",
        "population": "12531357",
        "currency": "Kwanza"
      }
    },
    {
      "lat": 55.3500003,
      "lon": 23.7499997,
      "tags": {
        "is_in:continent": "Europe",
        "name:en": "Lithuania",
        "name:fr": "Lituanie",
        "population": "3565205",
        "currency": "Euro"
      }
    },
    {
      "lat": 41.6171214,
      "lon": 21.7168387,
      "tags": {
        "is_in:continent": "Europe",
        "name:en": "Macedonia",
        "name:fr": "Macédoine",
        "population": "2061315",
        "currency": "Denar macédonien"
      }
    },
    {
      "lat": 16.3700359,
      "lon": -2.2900239,
      "tags": {
        "is_in:continent": "Afrique",
        "name:en": "Mali",
        "name:fr": "Mali",
        "population": "14517176",
        "currency": "Franc CFA"
      }
    },
    {
      "lat": -0.5249624,
      "lon": 166.9333009,
      "tags": {
        "is_in:continent": "Oceanie",
        "name:en": "Nauru",
        "name:fr": "Nauru",
        "population": "10175",
        "currency": "Dollar australien"
      }
    },
    {
      "lat": -5.6816069,
      "lon": 144.2489081,
      "tags": {
        "is_in:continent": "Oceanie",
        "name:en": "Papua New Guinea",
        "name:fr": "Papouasie-Nouvelle-Guinée",
        "population": "6858000",
        "currency": "Kina"
      }
    },
    {
      "lat": -19.9160819,
      "lon": -175.2026424,
      "tags": {
        "is_in:continent": "Oceanie",
        "name:en": "Tonga",
        "name:fr": "Tonga",
        "population": "104000",
        "currency": "Pa’anga"
      }
    },
    {
      "lat": 8.0018709,
      "lon": -66.1109318,
      "tags": {
        "is_in:continent": "Amérique du Sud",
        "name:en": "Venezuela",
        "name:fr": "Venezuela",
        "population": "28946101",
        "currency": "Bolivar vénézuélien"
      }
    },
    {
      "lat": 18.4024395,
      "lon": -64.5661642,
      "tags": {
        "is_in:continent": "Amérique du Nord",
        "name:en": "British Virgin Islands",
        "name:fr": "Îles Vierges britanniques",
        "population": "31148",
        "currency": "Dollar américain"
      }
    },
    {
      "lat": -4.7993356,
      "lon": 114.5632032,
      "tags": {
        "is_in:continent": "Asie",
        "name:en": "Indonesia",
        "name:fr": "Indonésie",
        "population": "237512352",
        "currency": "Roupie indonésienne"
      }
    },
    {
      "lat": 6.9518742,
      "lon": 170.9985095,
      "tags": {
        "is_in:continent": "Oceanie",
        "name:en": "Marshall Islands",
        "name:fr": "Îles Marshall",
        "population": "54600",
        "currency": "Dollar américain"
      }
    },
    {
      "lat": 77.6192349,
      "lon": -42.8125967,
      "tags": {
        "is_in:continent": "Amérique du Nord",
        "name:en": "Greenland",
        "name:fr": "Groenland",
        "population": "57564",
        "currency": "Couronne danoise"
      }
    },
    {
      "lat": 62.0448724,
      "lon": -7.0322972,
      "tags": {
        "is_in:continent": "Europe",
        "name:en": "Faroe Islands",
        "name:fr": "Îles Féroé",
        "population": "48565",
        "currency": "Couronne féroïenne"
      }
    },
    {
      "lat": 59.6749712,
      "lon": 14.5208584,
      "tags": {
        "is_in:continent": "Europe",
        "name:en": "Sweden",
        "name:fr": "Suède",
        "population": "9276509",
        "currency": "Couronne suédoise"
      }
    },
    {
      "lat": 34.9823018,
      "lon": 33.1451285,
      "tags": {
        "is_in:continent": "Europe",
        "name:en": "Cyprus",
        "name:fr": "Chypre",
        "population": "885041",
        "currency": "Euro"
      }
    },
    {
      "lat": 1.3571070,
      "lon": 103.8194992,
      "tags": {
        "is_in:continent": "Asie",
        "name:en": "Singapore",
        "name:fr": "Singapour",
        "population": "4839400",
        "currency": "Dollar de Singapour"
      }
    },
    {
      "lat": 7.2371480,
      "lon": 80.8209230,
      "tags": {
        "is_in:continent": "Asie",
        "name:en": "Sri Lanka",
        "name:fr": "Sri Lanka",
        "population": "20277597",
        "currency": "Roupie srilankaise"
      }
    },
    {
      "lat": 35.8885993,
      "lon": 14.4476911,
      "tags": {
        "is_in:continent": "Europe",
        "name:en": "Malta",
        "name:fr": "Malte",
        "population": "423282",
        "currency": "Euro"
      }
    },
    {
      "lat": 42.5869578,
      "lon": 20.9021231,
      "tags": {
        "is_in:continent": "Europe",
        "name:en": "Kosovo",
        "name:fr": "Kosovo",
        "population": "1800000",
        "currency": "Euro"
      }
    },
    {
      "lat": 50.6407351,
      "lon": 4.6669600,
      "tags": {
        "is_in:continent": "Europe",
        "name:en": "Belgium",
        "name:fr": "Belgique",
        "population": "11035948",
        "currency": "Euro"
      }
    },
    {
      "lat": 4.4137155,
      "lon": 114.5653908,
      "tags": {
        "is_in:continent": "Asie",
        "name:en": "Brunei",
        "name:fr": "Brunei",
        "population": "408786",
        "currency": "Dollar de Brunei"
      }
    },
    {
      "lat": 42.3476344,
      "lon": 44.0979465,
      "tags": {
        "is_in:continent": "Asie",
        "name:en": "South Ossetia",
        "name:fr": "Ossétie du Sud",
        "population": "72000",
        "currency": "Rouble russe"
      }
    },
    {
      "lat": 39.8079192,
      "lon": 46.6977209,
      "tags": {
        "is_in:continent": "Asie",
        "name:en": "Nagorno-Karabakh Republic",
        "name:fr": "Haut-Karabagh",
        "population": "144700",
        "currency": "Aucune devise"
      }
    },
    {
      "lat": 35.2245313,
      "lon": 33.6252379,
      "tags": {
        "is_in:continent": "Europe",
        "name:en": "Turkish Republic Of Northern Cyprus",
        "name:fr": "Chypre du Nord",
        "population": "265100",
        "currency": "Livre turque"
      }
    },
    {
      "lat": 41.5089324,
      "lon": 74.7240910,
      "tags": {
        "is_in:continent": "Asie",
        "name:en": "Kyrgyzstan",
        "name:fr": "Kirghizstan",
        "population": "5543300",
        "currency": "Som"
      }
    },
    {
      "lat": -20.2759451,
      "lon": 57.5703566,
      "tags": {
        "is_in:continent": "Afrique",
        "name:en": "Mauritius",
        "name:fr": "Maurice",
        "population": "1274189",
        "currency": "Roupie mauricienne"
      }
    },
    {
      "lat": 12.5013629,
      "lon": -69.9618475,
      "tags": {
        "is_in:continent": "Amérique du Nord",
        "name:en": "Aruba",
        "name:fr": "Aruba",
        "population": "101484",
        "currency": "Florin arubais"
      }
    },
    {
      "lat": 46.6033540,
      "lon": 1.8883335,
      "tags": {
        "is_in:continent": "Europe",
        "name:en": "France",
        "name:fr": "France",
        "population": "65073482",
        "currency": "Euro"
      }
    },
    {
      "lat": -25.0657719,
      "lon": -130.1017823,
      "tags": {
        "is_in:continent": "Oceanie",
        "name:en": "Pitcairn",
        "name:fr": "Îles Pitcairn",
        "population": "48",
        "currency": "Dollar néo-zélandais"
      }
    },
    {
      "lat": 52.8651960,
      "lon": -7.9794599,
      "tags": {
        "is_in:continent": "Europe",
        "name:en": "Ireland",
        "name:fr": "Irlande",
        "population": "4635400",
        "currency": "Euro"
      }
    },
    {
      "lat": 46.7985624,
      "lon": 8.2319736,
      "tags": {
        "is_in:continent": "Europe",
        "name:en": "Switzerland",
        "name:fr": "Suisse",
        "population": "8183800",
        "currency": "Franc Suisse"
      }
    },
    {
      "lat": 6.0973670,
      "lon": 133.3136310,
      "tags": {
        "is_in:continent": "Oceanie",
        "name:en": "Palau",
        "name:fr": "Palaos",
        "population": "20750",
        "currency": "Dollar américain"
      }
    },
    {
      "lat": -13.7693895,
      "lon": -172.1200508,
      "tags": {
        "is_in:continent": "Oceanie",
        "name:en": "Sāmoa",
        "name:fr": "Samoa",
        "population": "193000",
        "currency": "Tala"
      }
    },
    {
      "lat": 54.1936805,
      "lon": -4.5591148,
      "tags": {
        "is_in:continent": "Europe",
        "name:en": "Isle of Man",
        "name:fr": "Île de Man",
        "population": "84497",
        "currency": "Livre sterling"
      }
    },
    {
      "lat": 49.5804370,
      "lon": -2.4848540,
      "tags": {
        "is_in:continent": "Europe",
        "name:en": "Guernsey",
        "name:fr": "Guernesey",
        "population": "65228",
        "currency": "Livre sterling"
      }
    },
    {
      "lat": -18.4554963,
      "lon": 29.7468414,
      "tags": {
        "is_in:continent": "Afrique",
        "name:en": "Zimbabwe",
        "name:fr": "Zimbabwe",
        "population": "12521000",
        "currency": "Dollar du Zimbabwe"
      }
    },
    {
      "lat": 15.6356088,
      "lon": -89.8988087,
      "tags": {
        "is_in:continent": "Amérique du Nord",
        "name:en": "Guatemala",
        "name:fr": "Guatémala",
        "population": "13824463",
        "currency": "Quetzal"
      }
    },
    {
      "lat": -23.3165935,
      "lon": -58.1693445,
      "tags": {
        "is_in:continent": "Amérique du Sud",
        "name:en": "Paraguay",
        "name:fr": "Paraguay",
        "population": "7012433",
        "currency": "Guaraní"
      }
    },
    {
      "lat": 49.4871968,
      "lon": 31.2718321,
      "tags": {
        "is_in:continent": "Europe",
        "name:en": "Ukraine",
        "name:fr": "Ukraine",
        "population": "45665281",
        "currency": "Hryvnia"
      }
    },
    {
      "lat": 51.0834196,
      "lon": 10.4234469,
      "tags": {
        "is_in:continent": "Europe",
        "name:en": "Germany",
        "name:fr": "Allemagne",
        "population": "81879976",
        "currency": "Euro"
      }
    },
    {
      "lat": 25.3336984,
      "lon": 51.2295295,
      "tags": {
        "is_in:continent": "Asie",
        "name:en": "Qatar",
        "name:fr": "Qatar",
        "population": "1699435",
        "currency": "Rial qatari"
      }
    },
    {
      "lat": -0.7264327,
      "lon": 15.6419155,
      "tags": {
        "is_in:continent": "Afrique",
        "name:en": "Republic of the Congo",
        "name:fr": "République du Congo",
        "population": "3999000",
        "currency": "Franc congolais"
      }
    },
    {
      "lat": 45.9852129,
      "lon": 24.6859225,
      "tags": {
        "is_in:continent": "Europe",
        "name:en": "Romania",
        "name:fr": "Roumanie",
        "population": "21498616",
        "currency": "Leu roumain"
      }
    },
    {
      "lat": 12.9044700,
      "lon": -61.2765569,
      "tags": {
        "is_in:continent": "Amérique du Nord",
        "name:en": "Saint Vincent and the Grenadines",
        "name:fr": "Saint-Vincent-et-les-Grenadines",
        "population": "117200",
        
      }
    },
    {
      "lat": 14.4750607,
      "lon": -14.4529612,
      "tags": {
        "is_in:continent": "Afrique",
        "name:en": "Senegal",
        "name:fr": "Sénégal",
        "population": "12643799",
        "currency": "Franc CFA"
      }
    },
    {
      "lat": 48.7411522,
      "lon": 19.4528646,
      "tags": {
        "is_in:continent": "Europe",
        "name:en": "Slovakia",
        "name:fr": "Slovaquie",
        "population": "5404322",
        "currency": "Euro"
      }
    },
    {
      "lat": 4.1413025,
      "lon": -56.0771187,
      "tags": {
        "is_in:continent": "Amérique du Sud",
        "name:en": "Suriname",
        "name:fr": "Suriname",
        "population": "492829",
        "currency": "Dollar du Suriname"
      }
    },
    {
      "lat": 23.9739374,
      "lon": 120.9820179,
      "tags": {
        "is_in:continent": "Asie",
        "name:en": "Taiwan",
        "name:fr": "Taïwan",
        "population": "23127845",
        "currency": "Nouveau dollar de Taïwan"
      }
    },
    {
      "lat": -32.8755548,
      "lon": -56.0201525,
      "tags": {
        "is_in:continent": "Amérique du Sud",
        "name:en": "Uruguay",
        "name:fr": "Uruguay",
        "population": "3286314",
        "currency": "Peso uruguayen"
      }
    },
    {
      "lat": -14.5186239,
      "lon": 27.5599164,
      "tags": {
        "is_in:continent": "Afrique",
        "name:en": "Zambia",
        "name:fr": "Zambie",
        "population": "11668000",
        "currency": "Kwacha zambien"
      }
    },
    {
      "lat": 10.2116702,
      "lon": 38.6521203,
      "tags": {
        "is_in:continent": "Afrique",
        "name:en": "Ethiopia",
        "name:fr": "Éthiopie",
        "population": "78254090",
        "currency": "Birr"
      }
    },
    {
      "lat": 40.0332650,
      "lon": -7.8896263,
      "tags": {
        "is_in:continent": "Europe",
        "name:en": "Portugal",
        "name:fr": "Portugal",
        "population": "10562178",
        "currency": "Euro"
      }
    },
    {
      "lat": -29.6039267,
      "lon": 28.3350193,
      "tags": {
        "is_in:continent": "Afrique",
        "name:en": "Lesotho",
        "name:fr": "Lesotho",
        "population": "2067000",
        "currency": "Loti"
      }
    },
    {
      "lat": 47.1416307,
      "lon": 9.5531527,
      "tags": {
        "is_in:continent": "Europe",
        "name:en": "Liechtenstein",
        "name:fr": "Liechtenstein",
        "population": "37132",
        "currency": "Franc suisse"
      }
    },
    {
      "lat": 47.1922920,
      "lon": 29.3974130,
      "tags": {
        "is_in:continent": "Europe",
        "name:en": "Transnistria",
        "name:fr": "Transnistrie",
        "population": "513400",
        "currency": "Rouble de Transnistrie"
      }
    },
    {
      "lat": 2.3923759,
      "lon": 112.8471939,
      "tags": {
        "is_in:continent": "Asie",
        "name:en": "Malaysia",
        "name:fr": "Malaisie",
        "population": "28334135",
        "currency": "Ringgit"
      }
    },
    {
      "lat": 31.6497410,
      "lon": 35.1620720,
      "tags": {
        "is_in:continent": "Asie",
        "name:en": "Palestinian Territories",
        "name:fr": "Territoires Palestiniens",
        "population": "4260636",
        "currency": "Shekel"
      }
    },
    {
      "lat": 44.3053476,
      "lon": 17.5961467,
      "tags": {
        "is_in:continent": "Europe",
        "name:en": "Bosnia and Herzegovina",
        "name:fr": "Bosnie-Herzégovine",
        "population": "4621598",
        "currency": "Mark convertible de Bosnie-Herzégovine"
      }
    }
  ]
}